CCSDS_OMM_VERS = 2.0
CREATION_DATE  = 
ORIGINATOR     = 

OBJECT_NAME    = COSMOS 2151
OBJECT_ID      = 1991-042A
CENTER_NAME    = EARTH
REF_FRAME      = TEME
TIME_SYSTEM    = UTC
MEAN_ELEMENT_THEORY = SGP/SGP4

EPOCH          = 2025-11-22T01:43:38.778240
MEAN_MOTION    = 14.99580701
ECCENTRICITY   = .0014031
INCLINATION    = 82.4976
RA_OF_ASC_NODE = 187.4172
ARG_OF_PERICENTER = 65.1184
MEAN_ANOMALY   = 295.1496

EPHEMERIS_TYPE = 0
CLASSIFICATION_TYPE = U
NORAD_CAT_ID   = 21422
ELEMENT_SET_NO = 999
REV_AT_EPOCH   = 84706
BSTAR          = .13306E-3
MEAN_MOTION_DOT = .1666E-4
MEAN_MOTION_DDOT = 0

CCSDS_OMM_VERS = 2.0
CREATION_DATE  = 
ORIGINATOR     = 

OBJECT_NAME    = SL-14 R/B
OBJECT_ID      = 1991-042B
CENTER_NAME    = EARTH
REF_FRAME      = TEME
TIME_SYSTEM    = UTC
MEAN_ELEMENT_THEORY = SGP/SGP4

EPOCH          = 2025-11-22T01:12:07.921152
MEAN_MOTION    = 14.81711253
ECCENTRICITY   = .0015756
INCLINATION    = 82.4913
RA_OF_ASC_NODE = 321.1274
ARG_OF_PERICENTER = 231.6322
MEAN_ANOMALY   = 128.3477

EPHEMERIS_TYPE = 0
CLASSIFICATION_TYPE = U
NORAD_CAT_ID   = 21423
ELEMENT_SET_NO = 999
REV_AT_EPOCH   = 83713
BSTAR          = .56621E-4
MEAN_MOTION_DOT = .47E-5
MEAN_MOTION_DDOT = 0

CCSDS_OMM_VERS = 2.0
CREATION_DATE  = 
ORIGINATOR     = 

OBJECT_NAME    = ERS-1
OBJECT_ID      = 1991-050A
CENTER_NAME    = EARTH
REF_FRAME      = TEME
TIME_SYSTEM    = UTC
MEAN_ELEMENT_THEORY = SGP/SGP4

EPOCH          = 2025-11-22T00:30:37.061856
MEAN_MOTION    = 14.39342015
ECCENTRICITY   = .0032404
INCLINATION    = 98.7915
RA_OF_ASC_NODE = 336.5570
ARG_OF_PERICENTER = 159.9653
MEAN_ANOMALY   = 200.2814

EPHEMERIS_TYPE = 0
CLASSIFICATION_TYPE = U
NORAD_CAT_ID   = 21574
ELEMENT_SET_NO = 999
REV_AT_EPOCH   = 80024
BSTAR          = .12547E-3
MEAN_MOTION_DOT = .346E-5
MEAN_MOTION_DDOT = 0

CCSDS_OMM_VERS = 2.0
CREATION_DATE  = 
ORIGINATOR     = 

OBJECT_NAME    = ARIANE 40 R/B
OBJECT_ID      = 1991-050F
CENTER_NAME    = EARTH
REF_FRAME      = TEME
TIME_SYSTEM    = UTC
MEAN_ELEMENT_THEORY = SGP/SGP4

EPOCH          = 2025-11-22T02:53:01.182048
MEAN_MOTION    = 14.42788384
ECCENTRICITY   = .0003964
INCLINATION    = 98.2193
RA_OF_ASC_NODE = 17.2922
ARG_OF_PERICENTER = 55.6577
MEAN_ANOMALY   = 304.4988

EPHEMERIS_TYPE = 0
CLASSIFICATION_TYPE = U
NORAD_CAT_ID   = 21610
ELEMENT_SET_NO = 999
REV_AT_EPOCH   = 80348
BSTAR          = .12672E-3
MEAN_MOTION_DOT = .381E-5
MEAN_MOTION_DDOT = 0

CCSDS_OMM_VERS = 2.0
CREATION_DATE  = 
ORIGINATOR     = 

OBJECT_NAME    = INTERCOSMOS 25
OBJECT_ID      = 1991-086A
CENTER_NAME    = EARTH
REF_FRAME      = TEME
TIME_SYSTEM    = UTC
MEAN_ELEMENT_THEORY = SGP/SGP4

EPOCH          = 2025-11-22T01:51:34.297920
MEAN_MOTION    = 12.11633526
ECCENTRICITY   = .1487636
INCLINATION    = 82.6076
RA_OF_ASC_NODE = 15.0684
ARG_OF_PERICENTER = 348.9474
MEAN_ANOMALY   = 8.1968

EPHEMERIS_TYPE = 0
CLASSIFICATION_TYPE = U
NORAD_CAT_ID   = 21819
ELEMENT_SET_NO = 999
REV_AT_EPOCH   = 48365
BSTAR          = .21488E-3
MEAN_MOTION_DOT = .1098E-4
MEAN_MOTION_DDOT = 0

CCSDS_OMM_VERS = 2.0
CREATION_DATE  = 
ORIGINATOR     = 

OBJECT_NAME    = SL-8 R/B
OBJECT_ID      = 1992-008B
CENTER_NAME    = EARTH
REF_FRAME      = TEME
TIME_SYSTEM    = UTC
MEAN_ELEMENT_THEORY = SGP/SGP4

EPOCH          = 2025-11-22T02:22:18.098112
MEAN_MOTION    = 13.75952469
ECCENTRICITY   = .003608
INCLINATION    = 82.9270
RA_OF_ASC_NODE = 347.8009
ARG_OF_PERICENTER = 75.9540
MEAN_ANOMALY   = 338.3025

EPHEMERIS_TYPE = 0
CLASSIFICATION_TYPE = U
NORAD_CAT_ID   = 21876
ELEMENT_SET_NO = 999
REV_AT_EPOCH   = 69462
BSTAR          = .11117E-3
MEAN_MOTION_DOT = .124E-5
MEAN_MOTION_DDOT = 0

CCSDS_OMM_VERS = 2.0
CREATION_DATE  = 
ORIGINATOR     = 

OBJECT_NAME    = SL-8 R/B
OBJECT_ID      = 1992-020B
CENTER_NAME    = EARTH
REF_FRAME      = TEME
TIME_SYSTEM    = UTC
MEAN_ELEMENT_THEORY = SGP/SGP4

EPOCH          = 2025-11-21T21:26:48.532992
MEAN_MOTION    = 13.75523224
ECCENTRICITY   = .0027761
INCLINATION    = 82.9315
RA_OF_ASC_NODE = 233.7954
ARG_OF_PERICENTER = 237.7370
MEAN_ANOMALY   = 192.7879

EPHEMERIS_TYPE = 0
CLASSIFICATION_TYPE = U
NORAD_CAT_ID   = 21938
ELEMENT_SET_NO = 999
REV_AT_EPOCH   = 68631
BSTAR          = .76543E-4
MEAN_MOTION_DOT = .89E-6
MEAN_MOTION_DDOT = 0

CCSDS_OMM_VERS = 2.0
CREATION_DATE  = 
ORIGINATOR     = 

OBJECT_NAME    = USA 81
OBJECT_ID      = 1992-023A
CENTER_NAME    = EARTH
REF_FRAME      = TEME
TIME_SYSTEM    = UTC
MEAN_ELEMENT_THEORY = SGP/SGP4

EPOCH          = 2025-11-22T01:49:29.621856
MEAN_MOTION    = 14.32316461
ECCENTRICITY   = .0002361
INCLINATION    = 85.0099
RA_OF_ASC_NODE = 193.4917
ARG_OF_PERICENTER = 68.8249
MEAN_ANOMALY   = 291.3195

EPHEMERIS_TYPE = 0
CLASSIFICATION_TYPE = U
NORAD_CAT_ID   = 21949
ELEMENT_SET_NO = 999
REV_AT_EPOCH   = 7938
BSTAR          = .70239E-4
MEAN_MOTION_DOT = .209E-5
MEAN_MOTION_DDOT = 0

CCSDS_OMM_VERS = 2.0
CREATION_DATE  = 
ORIGINATOR     = 

OBJECT_NAME    = COSMOS 2219
OBJECT_ID      = 1992-076A
CENTER_NAME    = EARTH
REF_FRAME      = TEME
TIME_SYSTEM    = UTC
MEAN_ELEMENT_THEORY = SGP/SGP4

EPOCH          = 2025-11-21T23:57:07.884288
MEAN_MOTION    = 14.14067300
ECCENTRICITY   = .0018279
INCLINATION    = 71.0608
RA_OF_ASC_NODE = 243.1886
ARG_OF_PERICENTER = 356.1551
MEAN_ANOMALY   = 3.9428

EPHEMERIS_TYPE = 0
CLASSIFICATION_TYPE = U
NORAD_CAT_ID   = 22219
ELEMENT_SET_NO = 999
REV_AT_EPOCH   = 70315
BSTAR          = -.46873E-4
MEAN_MOTION_DOT = -.136E-5
MEAN_MOTION_DDOT = 0

CCSDS_OMM_VERS = 2.0
CREATION_DATE  = 
ORIGINATOR     = 

OBJECT_NAME    = SL-16 R/B
OBJECT_ID      = 1992-076B
CENTER_NAME    = EARTH
REF_FRAME      = TEME
TIME_SYSTEM    = UTC
MEAN_ELEMENT_THEORY = SGP/SGP4

EPOCH          = 2025-11-21T16:30:42.222816
MEAN_MOTION    = 14.16835615
ECCENTRICITY   = .0015159
INCLINATION    = 71.0010
RA_OF_ASC_NODE = 55.8753
ARG_OF_PERICENTER = 261.3975
MEAN_ANOMALY   = 209.7999

EPHEMERIS_TYPE = 0
CLASSIFICATION_TYPE = U
NORAD_CAT_ID   = 22220
ELEMENT_SET_NO = 999
REV_AT_EPOCH   = 70653
BSTAR          = .43224E-4
MEAN_MOTION_DOT = .39E-6
MEAN_MOTION_DDOT = 0

CCSDS_OMM_VERS = 2.0
CREATION_DATE  = 
ORIGINATOR     = 

OBJECT_NAME    = COSMOS 2221
OBJECT_ID      = 1992-080A
CENTER_NAME    = EARTH
REF_FRAME      = TEME
TIME_SYSTEM    = UTC
MEAN_ELEMENT_THEORY = SGP/SGP4

EPOCH          = 2025-11-21T14:39:07.822944
MEAN_MOTION    = 14.95646725
ECCENTRICITY   = .0014364
INCLINATION    = 82.5062
RA_OF_ASC_NODE = 22.5463
ARG_OF_PERICENTER = 189.7532
MEAN_ANOMALY   = 170.3413

EPHEMERIS_TYPE = 0
CLASSIFICATION_TYPE = U
NORAD_CAT_ID   = 22236
ELEMENT_SET_NO = 999
REV_AT_EPOCH   = 76463
BSTAR          = .15857E-3
MEAN_MOTION_DOT = .1791E-4
MEAN_MOTION_DDOT = 0

CCSDS_OMM_VERS = 2.0
CREATION_DATE  = 
ORIGINATOR     = 

OBJECT_NAME    = SL-16 R/B
OBJECT_ID      = 1992-093B
CENTER_NAME    = EARTH
REF_FRAME      = TEME
TIME_SYSTEM    = UTC
MEAN_ELEMENT_THEORY = SGP/SGP4

EPOCH          = 2025-11-22T02:35:39.781248
MEAN_MOTION    = 14.15428147
ECCENTRICITY   = .0002139
INCLINATION    = 71.0217
RA_OF_ASC_NODE = 230.1034
ARG_OF_PERICENTER = 134.7275
MEAN_ANOMALY   = 225.4023

EPHEMERIS_TYPE = 0
CLASSIFICATION_TYPE = U
NORAD_CAT_ID   = 22285
ELEMENT_SET_NO = 999
REV_AT_EPOCH   = 69793
BSTAR          = -.13776E-4
MEAN_MOTION_DOT = -.74E-6
MEAN_MOTION_DDOT = 0

