COSMOS 2151             
1 21422U 91042A   25326.07197660  .00001666  00000+0  13306-3 0  9995
2 21422  82.4976 187.4172 0014031  65.1184 295.1496 14.99580701847068
SL-14 R/B               
1 21423U 91042B   25326.05009168  .00000470  00000+0  56621-4 0  9999
2 21423  82.4913 321.1274 0015756 231.6322 128.3477 14.81711253837131
ERS-1                   
1 21574U 91050A   25326.02126229  .00000346  00000+0  12547-3 0  9990
2 21574  98.7915 336.5570 0032404 159.9653 200.2814 14.39342015800243
ARIANE 40 R/B           
1 21610U 91050F   25326.12015257  .00000381  00000+0  12672-3 0  9998
2 21610  98.2193  17.2922 0003964  55.6577 304.4988 14.42788384803482
INTERCOSMOS 25          
1 21819U 91086A   25326.07748030  .00001098  00000+0  21488-3 0  9995
2 21819  82.6076  15.0684 1487636 348.9474   8.1968 12.11633526483658
SL-8 R/B                
1 21876U 92008B   25326.09882058  .00000124  00000+0  11117-3 0  9991
2 21876  82.9270 347.8009 0036080  75.9540 338.3025 13.75952469694624
SL-8 R/B                
1 21938U 92020B   25325.89361728  .00000089  00000+0  76543-4 0  9992
2 21938  82.9315 233.7954 0027761 237.7370 192.7879 13.75523224686319
USA 81                  
1 21949U 92023A   25326.07603729  .00000209  00000+0  70239-4 0  9998
2 21949  85.0099 193.4917 0002361  68.8249 291.3195 14.32316461 79389
COSMOS 2219             
1 22219U 92076A   25325.99800792 -.00000136  00000+0 -46873-4 0  9994
2 22219  71.0608 243.1886 0018279 356.1551   3.9428 14.14067300703153
SL-16 R/B               
1 22220U 92076B   25325.68798869  .00000039  00000+0  43224-4 0  9990
2 22220  71.0010  55.8753 0015159 261.3975 209.7999 14.16835615706532
COSMOS 2221             
1 22236U 92080A   25325.61050721  .00001791  00000+0  15857-3 0  9999
2 22236  82.5062  22.5463 0014364 189.7532 170.3413 14.95646725764639
SL-16 R/B               
1 22285U 92093B   25326.10809932 -.00000074  00000+0 -13776-4 0  9992
2 22285  71.0217 230.1034 0002139 134.7275 225.4023 14.15428147697935
